ISS (ZARYA)             
1 25544U 98067A   26141.29411058  .00005910  00000+0  11416-3 0  9994
2 25544  51.6329  73.2330 0007523  82.0965 278.0877 15.49293486567584
POISK                   
1 36086U 09060A   26141.29411058  .00005910  00000+0  11416-3 0  9992
2 36086  51.6329  73.2330 0007523  82.0965 278.0877 15.49293486567206
CSS (TIANHE)            
1 48274U 21035A   26141.41347066  .00011191  00000+0  13454-3 0  9993
2 48274  41.4679 124.8054 0007453 272.7729  87.2257 15.60719554288986
ISS (NAUKA)             
1 49044U 21066A   26141.29411058  .00005910  00000+0  11416-3 0  9990
2 49044  51.6329  73.2330 0007523  82.0965 278.0877 15.49293486567248
FREGAT DEB              
1 49271U 11037PF  26141.08793216  .00014430  00000+0  23002-1 0  9994
2 49271  51.6281  83.3214 0924160 223.5511 128.8695 12.41555304221688
CSS (WENTIAN)           
1 53239U 22085A   26141.41347066  .00011191  00000+0  13454-3 0  9996
2 53239  41.4679 124.8054 0007453 272.7729  87.2257 15.60719554288231
CSS (MENGTIAN)          
1 54216U 22143A   26141.41347066  .00011191  00000+0  13454-3 0  9997
2 54216  41.4679 124.8054 0007453 272.7729  87.2257 15.60719554289496
HRC MONOBLOCK CAMERA    
1 66052U 98067XR  26140.99284127  .00048850  00000+0  39933-3 0  9998
2 66052  51.6263  58.4367 0003983  79.9008 280.2438 15.70047086 33723
HTV-X1                  
1 66174U 25241A   26141.05942275  .00017264  00000+0  18637-3 0  9993
2 66174  51.6359  77.5916 0007491  82.0458 278.1387 15.63726575 32107
SZ-21 MODULE            
1 66515U 25246C   26140.95331086  .00030410  00000+0  20904-3 0  9995
2 66515  41.4724 116.6343 0004315 190.9761 169.0989 15.73971304 29448
SHENZHOU-22             
1 66645U 25272A   26141.41347066  .00011191  00000+0  13454-3 0  9992
2 66645  41.4679 124.8054 0007453 272.7729  87.2257 15.60719554289518
SOYUZ-MS 28             
1 66664U 25275A   26141.29411058  .00005910  00000+0  11416-3 0  9993
2 66664  51.6329  73.2330 0007523  82.0965 278.0877 15.49293486567324
