[
    {
        "ARG_OF_PERICENTER": 82.0965,
        "BSTAR": 0.00011416167,
        "CLASSIFICATION_TYPE": "U",
        "ECCENTRICITY": 0.00075232,
        "ELEMENT_SET_NO": 999,
        "EPHEMERIS_TYPE": 0,
        "EPOCH": "2026-05-21T07:03:31.154112",
        "INCLINATION": 51.6329,
        "MEAN_ANOMALY": 278.0877,
        "MEAN_MOTION": 15.49293486,
        "MEAN_MOTION_DDOT": 0,
        "MEAN_MOTION_DOT": 5.91e-05,
        "NORAD_CAT_ID": 25544,
        "OBJECT_ID": "1998-067A",
        "OBJECT_NAME": "ISS (ZARYA)",
        "RA_OF_ASC_NODE": 73.233,
        "REV_AT_EPOCH": 56758
    },
    {
        "ARG_OF_PERICENTER": 82.0965,
        "BSTAR": 0.00011416167,
        "CLASSIFICATION_TYPE": "U",
        "ECCENTRICITY": 0.00075232,
        "ELEMENT_SET_NO": 999,
        "EPHEMERIS_TYPE": 0,
        "EPOCH": "2026-05-21T07:03:31.154112",
        "INCLINATION": 51.6329,
        "MEAN_ANOMALY": 278.0877,
        "MEAN_MOTION": 15.49293486,
        "MEAN_MOTION_DDOT": 0,
        "MEAN_MOTION_DOT": 5.91e-05,
        "NORAD_CAT_ID": 36086,
        "OBJECT_ID": "2009-060A",
        "OBJECT_NAME": "POISK",
        "RA_OF_ASC_NODE": 73.233,
        "REV_AT_EPOCH": 56720
    },
    {
        "ARG_OF_PERICENTER": 272.7729,
        "BSTAR": 0.00013453798,
        "CLASSIFICATION_TYPE": "U",
        "ECCENTRICITY": 0.00074531,
        "ELEMENT_SET_NO": 999,
        "EPHEMERIS_TYPE": 0,
        "EPOCH": "2026-05-21T09:55:23.865024",
        "INCLINATION": 41.4679,
        "MEAN_ANOMALY": 87.2257,
        "MEAN_MOTION": 15.60719554,
        "MEAN_MOTION_DDOT": 0,
        "MEAN_MOTION_DOT": 0.00011191,
        "NORAD_CAT_ID": 48274,
        "OBJECT_ID": "2021-035A",
        "OBJECT_NAME": "CSS (TIANHE)",
        "RA_OF_ASC_NODE": 124.8054,
        "REV_AT_EPOCH": 28898
    },
    {
        "ARG_OF_PERICENTER": 82.0965,
        "BSTAR": 0.00011416167,
        "CLASSIFICATION_TYPE": "U",
        "ECCENTRICITY": 0.00075232,
        "ELEMENT_SET_NO": 999,
        "EPHEMERIS_TYPE": 0,
        "EPOCH": "2026-05-21T07:03:31.154112",
        "INCLINATION": 51.6329,
        "MEAN_ANOMALY": 278.0877,
        "MEAN_MOTION": 15.49293486,
        "MEAN_MOTION_DDOT": 0,
        "MEAN_MOTION_DOT": 5.91e-05,
        "NORAD_CAT_ID": 49044,
        "OBJECT_ID": "2021-066A",
        "OBJECT_NAME": "ISS (NAUKA)",
        "RA_OF_ASC_NODE": 73.233,
        "REV_AT_EPOCH": 56724
    },
    {
        "ARG_OF_PERICENTER": 223.5511,
        "BSTAR": 0.023001763,
        "CLASSIFICATION_TYPE": "U",
        "ECCENTRICITY": 0.092416,
        "ELEMENT_SET_NO": 999,
        "EPHEMERIS_TYPE": 0,
        "EPOCH": "2026-05-21T02:06:37.338624",
        "INCLINATION": 51.6281,
        "MEAN_ANOMALY": 128.8695,
        "MEAN_MOTION": 12.41555304,
        "MEAN_MOTION_DDOT": 0,
        "MEAN_MOTION_DOT": 0.0001443,
        "NORAD_CAT_ID": 49271,
        "OBJECT_ID": "2011-037PF",
        "OBJECT_NAME": "FREGAT DEB",
        "RA_OF_ASC_NODE": 83.3214,
        "REV_AT_EPOCH": 22168
    },
    {
        "ARG_OF_PERICENTER": 272.7729,
        "BSTAR": 0.00013453798,
        "CLASSIFICATION_TYPE": "U",
        "ECCENTRICITY": 0.00074531,
        "ELEMENT_SET_NO": 999,
        "EPHEMERIS_TYPE": 0,
        "EPOCH": "2026-05-21T09:55:23.865024",
        "INCLINATION": 41.4679,
        "MEAN_ANOMALY": 87.2257,
        "MEAN_MOTION": 15.60719554,
        "MEAN_MOTION_DDOT": 0,
        "MEAN_MOTION_DOT": 0.00011191,
        "NORAD_CAT_ID": 53239,
        "OBJECT_ID": "2022-085A",
        "OBJECT_NAME": "CSS (WENTIAN)",
        "RA_OF_ASC_NODE": 124.8054,
        "REV_AT_EPOCH": 28823
    },
    {
        "ARG_OF_PERICENTER": 272.7729,
        "BSTAR": 0.00013453798,
        "CLASSIFICATION_TYPE": "U",
        "ECCENTRICITY": 0.00074531,
        "ELEMENT_SET_NO": 999,
        "EPHEMERIS_TYPE": 0,
        "EPOCH": "2026-05-21T09:55:23.865024",
        "INCLINATION": 41.4679,
        "MEAN_ANOMALY": 87.2257,
        "MEAN_MOTION": 15.60719554,
        "MEAN_MOTION_DDOT": 0,
        "MEAN_MOTION_DOT": 0.00011191,
        "NORAD_CAT_ID": 54216,
        "OBJECT_ID": "2022-143A",
        "OBJECT_NAME": "CSS (MENGTIAN)",
        "RA_OF_ASC_NODE": 124.8054,
        "REV_AT_EPOCH": 28949
    },
    {
        "ARG_OF_PERICENTER": 79.9008,
        "BSTAR": 0.00039933004,
        "CLASSIFICATION_TYPE": "U",
        "ECCENTRICITY": 0.00039831,
        "ELEMENT_SET_NO": 999,
        "EPHEMERIS_TYPE": 0,
        "EPOCH": "2026-05-20T23:49:41.485728",
        "INCLINATION": 51.6263,
        "MEAN_ANOMALY": 280.2438,
        "MEAN_MOTION": 15.70047086,
        "MEAN_MOTION_DDOT": 0,
        "MEAN_MOTION_DOT": 0.0004885,
        "NORAD_CAT_ID": 66052,
        "OBJECT_ID": "1998-067XR",
        "OBJECT_NAME": "HRC MONOBLOCK CAMERA",
        "RA_OF_ASC_NODE": 58.4367,
        "REV_AT_EPOCH": 3372
    },
    {
        "ARG_OF_PERICENTER": 82.0458,
        "BSTAR": 0.00018636748,
        "CLASSIFICATION_TYPE": "U",
        "ECCENTRICITY": 0.00074911,
        "ELEMENT_SET_NO": 999,
        "EPHEMERIS_TYPE": 0,
        "EPOCH": "2026-05-21T01:25:34.125600",
        "INCLINATION": 51.6359,
        "MEAN_ANOMALY": 278.1387,
        "MEAN_MOTION": 15.63726575,
        "MEAN_MOTION_DDOT": 0,
        "MEAN_MOTION_DOT": 0.00017264,
        "NORAD_CAT_ID": 66174,
        "OBJECT_ID": "2025-241A",
        "OBJECT_NAME": "HTV-X1",
        "RA_OF_ASC_NODE": 77.5916,
        "REV_AT_EPOCH": 3210
    },
    {
        "ARG_OF_PERICENTER": 190.9761,
        "BSTAR": 0.0002090364,
        "CLASSIFICATION_TYPE": "U",
        "ECCENTRICITY": 0.00043152,
        "ELEMENT_SET_NO": 999,
        "EPHEMERIS_TYPE": 0,
        "EPOCH": "2026-05-20T22:52:46.058304",
        "INCLINATION": 41.4724,
        "MEAN_ANOMALY": 169.0989,
        "MEAN_MOTION": 15.73971304,
        "MEAN_MOTION_DDOT": 0,
        "MEAN_MOTION_DOT": 0.0003041,
        "NORAD_CAT_ID": 66515,
        "OBJECT_ID": "2025-246C",
        "OBJECT_NAME": "SZ-21 MODULE",
        "RA_OF_ASC_NODE": 116.6343,
        "REV_AT_EPOCH": 2944
    },
    {
        "ARG_OF_PERICENTER": 272.7729,
        "BSTAR": 0.00013453798,
        "CLASSIFICATION_TYPE": "U",
        "ECCENTRICITY": 0.00074531,
        "ELEMENT_SET_NO": 999,
        "EPHEMERIS_TYPE": 0,
        "EPOCH": "2026-05-21T09:55:23.865024",
        "INCLINATION": 41.4679,
        "MEAN_ANOMALY": 87.2257,
        "MEAN_MOTION": 15.60719554,
        "MEAN_MOTION_DDOT": 0,
        "MEAN_MOTION_DOT": 0.00011191,
        "NORAD_CAT_ID": 66645,
        "OBJECT_ID": "2025-272A",
        "OBJECT_NAME": "SHENZHOU-22",
        "RA_OF_ASC_NODE": 124.8054,
        "REV_AT_EPOCH": 28951
    },
    {
        "ARG_OF_PERICENTER": 82.0965,
        "BSTAR": 0.00011416167,
        "CLASSIFICATION_TYPE": "U",
        "ECCENTRICITY": 0.00075232,
        "ELEMENT_SET_NO": 999,
        "EPHEMERIS_TYPE": 0,
        "EPOCH": "2026-05-21T07:03:31.154112",
        "INCLINATION": 51.6329,
        "MEAN_ANOMALY": 278.0877,
        "MEAN_MOTION": 15.49293486,
        "MEAN_MOTION_DDOT": 0,
        "MEAN_MOTION_DOT": 5.91e-05,
        "NORAD_CAT_ID": 66664,
        "OBJECT_ID": "2025-275A",
        "OBJECT_NAME": "SOYUZ-MS 28",
        "RA_OF_ASC_NODE": 73.233,
        "REV_AT_EPOCH": 56732
    }
]